NORAD_CAT_ID,OBJECT_NAME,OBJECT_TYPE,EPOCH,MEAN_MOTION,ECCENTRICITY,INCLINATION,RA_OF_ASC_NODE,ARG_OF_PERICENTER,MEAN_ANOMALY,BSTAR,MEAN_MOTION_DOT,MEAN_MOTION_DDOT,TLE_LINE0,TLE_LINE1,TLE_LINE2,SEMIMAJOR_AXIS,PERIOD,APOGEE,PERIGEE,DECAYED
49138.0,STARLINK-3058,PAYLOAD,2024-01-22 07:03:31,14.98327469,0.0002693,70.0003,94.5552,271.2818,88.8032,4.3163e-05,4.22e-06,0.0,0 STARLINK-3058,1 49138U 21082J   24022.29410941  .00000422  00000-0  43163-4 0  9997,2 49138  70.0003  94.5552 0002693 271.2818  88.8032 14.98327469129538,6950.201,96.107,573.937,570.194,0.0
49138.0,STARLINK-3058,PAYLOAD,2024-01-22 15:04:11,14.98332021,0.000261,70.0005,93.7138,268.5039,91.5821,7.705e-05,8.27e-06,0.0,0 STARLINK-3058,1 49138U 21082J   24022.62790571  .00000827  00000-0  77050-4 0  9995,2 49138  70.0005  93.7138 0002610 268.5039  91.5821 14.98332021129586,6950.187,96.107,573.866,570.238,0.0
49138.0,STARLINK-3058,PAYLOAD,2024-01-23 07:05:31,14.98334315,0.0002568,70.0004,92.031,260.6321,99.4548,6.1403e-05,6.4e-06,0.0,0 STARLINK-3058,1 49138U 21082J   24023.29550319  .00000640  00000-0  61403-4 0  9991,2 49138  70.0004  92.0310 0002568 260.6321  99.4548 14.98334315129680,6950.18,96.107,573.829,570.26,0.0
49138.0,STARLINK-3058,PAYLOAD,2024-01-23 11:53:55,14.98339973,0.0002311,70.0004,91.5257,247.4386,112.6529,-2.8046e-05,-4.28e-06,0.0,0 STARLINK-3058,1 49138U 21082J   24023.49578098 -.00000428  00000-0 -28046-4 0  9999,2 49138  70.0004  91.5257 0002311 247.4386 112.6529 14.98339973129710,6950.162,96.106,573.633,570.421,0.0
49138.0,STARLINK-3058,PAYLOAD,2024-01-23 13:30:03,14.98334436,0.0002564,70.0005,91.3575,257.9945,102.0926,0.00010964,1.216e-05,0.0,0 STARLINK-3058,1 49138U 21082J   24023.56254142  .00001216  00000-0  10964-3 0  9991,2 49138  70.0005  91.3575 0002564 257.9945 102.0926 14.98334436129723,6950.179,96.107,573.826,570.262,0.0
49138.0,STARLINK-3058,PAYLOAD,2024-01-24 11:55:56,14.98368423,0.0002828,70.0006,89.002,251.6045,108.4807,-0.00084974,-0.00010227,0.0,0 STARLINK-3058,1 49138U 21082J   24024.49717984 -.00010227  00000-0 -84974-3 0  9998,2 49138  70.0006  89.0020 0002828 251.6045 108.4807 14.98368423129864,6950.074,96.105,573.905,569.974,0.0
49138.0,STARLINK-3058,PAYLOAD,2024-01-24 13:32:05,14.98322649,0.0002547,70.0005,88.8332,253.3232,106.7647,-2.8807e-05,-4.37e-06,0.0,0 STARLINK-3058,1 49138U 21082J   24024.56395253 -.00000437  00000-0 -28807-4 0  9993,2 49138  70.0005  88.8332 0002547 253.3232 106.7647 14.98322649129875,6950.216,96.107,573.851,570.31,0.0
49138.0,STARLINK-3058,PAYLOAD,2024-01-25 13:34:06,14.98327229,0.0002599,70.0005,86.3091,252.7785,107.309,-4.2214e-05,-5.97e-06,0.0,0 STARLINK-3058,1 49138U 21082J   24025.56535212 -.00000597  00000-0 -42214-4 0  9990,2 49138  70.0005  86.3091 0002599 252.7785 107.3090 14.98327229130020,6950.201,96.107,573.873,570.26,0.0
49138.0,STARLINK-3058,PAYLOAD,2024-01-26 03:59:18,14.98332681,0.0002919,69.9995,84.7928,266.3565,93.726,0.00016001,1.817e-05,0.0,0 STARLINK-3058,1 49138U 21082J   24026.16618318  .00001817  00000-0  16001-3 0  9994,2 49138  69.9995  84.7928 0002919 266.3565  93.7260 14.98332681130114,6950.185,96.107,574.078,570.021,0.0
49138.0,STARLINK-3058,PAYLOAD,2024-01-26 13:36:06,14.98337257,0.0002818,69.9998,83.7833,261.5842,98.4998,0.00020534,2.358e-05,0.0,0 STARLINK-3058,1 49138U 21082J   24026.56673901  .00002358  00000-0  20534-3 0  9994,2 49138  69.9998  83.7833 0002818 261.5842  98.4998 14.98337257130174,6950.17,96.107,573.994,570.077,0.0
49138.0,STARLINK-3058,PAYLOAD,2024-01-27 04:01:19,14.98329974,0.0002753,70.0002,82.2694,248.0001,112.0865,8.5308e-05,9.25e-06,0.0,0 STARLINK-3058,1 49138U 21082J   24027.16758541  .00000925  00000-0  85308-4 0  9994,2 49138  70.0002  82.2694 0002753 248.0001 112.0865 14.98329974130260,6950.193,96.107,573.971,570.145,0.0
49138.0,STARLINK-3058,PAYLOAD,2024-01-27 13:38:07,14.98330446,0.0002729,70.0001,81.2591,250.8408,109.2456,8.0993e-05,8.74e-06,0.0,0 STARLINK-3058,1 49138U 21082J   24027.56814567  .00000874  00000-0  80993-4 0  9997,2 49138  70.0001  81.2591 0002729 250.8408 109.2456 14.98330446130326,6950.192,96.107,573.953,570.16,0.0
49138.0,STARLINK-3058,PAYLOAD,2024-01-28 04:03:20,14.98335633,0.0002462,70.0005,79.7426,259.0791,101.0091,-1.6649e-05,-2.92e-06,0.0,0 STARLINK-3058,1 49138U 21082J   24028.16898370 -.00000292  00000-0 -16649-4 0  9991,2 49138  70.0005  79.7426 0002462 259.0791 101.0091 14.98335633130417,6950.175,96.107,573.752,570.329,0.0
49138.0,STARLINK-3058,PAYLOAD,2024-01-28 13:40:08,14.98332991,0.0002528,70.0003,78.7328,258.827,101.2605,-4.9561e-05,-6.84e-06,0.0,0 STARLINK-3058,1 49138U 21082J   24028.56954502 -.00000684  00000-0 -49561-4 0  9999,2 49138  70.0003  78.7328 0002528 258.8270 101.2605 14.98332991130470,6950.184,96.107,573.806,570.292,0.0
49138.0,STARLINK-3058,PAYLOAD,2024-01-29 04:05:20,14.98332505,0.0002685,69.9998,77.2175,262.7059,97.3795,5.236e-05,5.32e-06,0.0,0 STARLINK-3058,1 49138U 21082J   24029.17038117  .00000532  00000-0  52360-4 0  9993,2 49138  69.9998  77.2175 0002685 262.7059  97.3795 14.98332505130563,6950.185,96.107,573.916,570.184,0.0
49138.0,STARLINK-3058,PAYLOAD,2024-01-29 13:42:09,14.98333054,0.0002683,69.9998,76.2075,262.4006,97.6848,5.3833e-05,5.49e-06,0.0,0 STARLINK-3058,1 49138U 21082J   24029.57094022  .00000549  00000-0  53833-4 0  9998,2 49138  69.9998  76.2075 0002683 262.4006  97.6848 14.98333054130627,6950.183,96.107,573.913,570.184,0.0
49138.0,STARLINK-3058,PAYLOAD,2024-01-30 04:07:22,14.98329239,0.000264,69.9998,74.6923,260.4988,99.5872,3.9285e-05,3.76e-06,0.0,0 STARLINK-3058,1 49138U 21082J   24030.17178248  .00000376  00000-0  39285-4 0  9992,2 49138  69.9998  74.6923 0002640 260.4988  99.5872 14.98329239130719,6950.195,96.107,573.895,570.225,0.0
49138.0,STARLINK-3058,PAYLOAD,2024-01-30 12:08:02,14.9832754,0.0002676,69.9999,73.8509,260.8577,99.228,1.4319e-05,7.8e-07,0.0,0 STARLINK-3058,1 49138U 21082J   24030.50558451  .00000078  00000-0  14319-4 0  9997,2 49138  69.9999  73.8509 0002676 260.8577  99.2280 14.98327540130766,6950.2,96.107,573.925,570.206,0.0
49138.0,STARLINK-3058,PAYLOAD,2024-01-31 04:09:23,14.98324321,0.0002584,70.0003,72.1686,253.2466,106.841,-4.7708e-05,-6.62e-06,0.0,0 STARLINK-3058,1 49138U 21082J   24031.17318930 -.00000662  00000-0 -47708-4 0  9996,2 49138  70.0003  72.1686 0002584 253.2466 106.8410 14.98324321130869,6950.21,96.107,573.871,570.28,0.0
49138.0,STARLINK-3058,PAYLOAD,2024-01-31 12:10:04,14.98320706,0.0002647,70.0001,71.3267,255.5581,104.5284,-8.9083e-05,-1.155e-05,0.0,0 STARLINK-3058,1 49138U 21082J   24031.50699421 -.00001155  00000-0 -89083-4 0  9990,2 49138  70.0001  71.3267 0002647 255.5581 104.5284 14.98320706130919,6950.222,96.108,573.926,570.247,0.0
49138.0,STARLINK-3058,PAYLOAD,2024-02-01 04:11:24,14.9832957,0.0002868,69.9995,69.6427,263.976,96.1072,5.6658e-05,5.83e-06,0.0,0 STARLINK-3058,1 49138U 21082J   24032.17458640  .00000583  00000-0  56658-4 0  9994,2 49138  69.9995  69.6427 0002868 263.9760  96.1072 14.98329570131014,6950.194,96.107,574.053,570.066,0.0
49138.0,STARLINK-3058,PAYLOAD,2024-02-01 12:12:04,14.98331342,0.0002835,69.9996,68.8011,263.9059,96.1777,7.6986e-05,8.26e-06,0.0,0 STARLINK-3058,1 49138U 21082J   24032.50838503  .00000826  00000-0  76986-4 0  9997,2 49138  69.9996  68.8011 0002835 263.9059  96.1777 14.98331342131067,6950.189,96.107,574.024,570.083,0.0
49138.0,STARLINK-3058,PAYLOAD,2024-02-02 04:13:24,14.98332554,0.0002986,69.9991,67.1174,264.4575,95.6243,0.00015409,1.746e-05,0.0,0 STARLINK-3058,1 49138U 21082J   24033.17598150  .00001746  00000-0  15409-3 0  9996,2 49138  69.9991  67.1174 0002986 264.4575  95.6243 14.98332554131169,6950.185,96.107,574.125,569.975,0.0
49138.0,STARLINK-3058,PAYLOAD,2024-02-02 12:14:04,14.98335636,0.0002942,69.9992,66.2759,263.7305,96.3519,0.00017817,2.034e-05,0.0,0 STARLINK-3058,1 49138U 21082J   24033.50977831  .00002034  00000-0  17817-3 0  9996,2 49138  69.9992  66.2759 0002942 263.7305  96.3519 14.98335636131218,6950.175,96.107,574.085,569.996,0.0
49138.0,STARLINK-3058,PAYLOAD,2024-02-03 04:15:26,14.98331476,0.0002686,69.9998,64.5922,269.1793,90.9058,-7.5781e-06,-1.83e-06,0.0,0 STARLINK-3058,1 49138U 21082J   24034.17738529 -.00000183  00000-0 -75781-5 0  9990,2 49138  69.9998  64.5922 0002686 269.1793  90.9058 14.98331476131310,6950.188,96.107,573.92,570.187,0.0
49138.0,STARLINK-3058,PAYLOAD,2024-02-03 12:16:06,14.98331286,0.0002711,69.9997,63.7506,268.3608,91.7241,-1.2078e-05,-2.37e-06,0.0,0 STARLINK-3058,1 49138U 21082J   24034.51118523 -.00000237  00000-0 -12078-4 0  9993,2 49138  69.9997  63.7506 0002711 268.3608  91.7241 14.98331286131360,6950.189,96.107,573.938,570.17,0.0
49138.0,STARLINK-3058,PAYLOAD,2024-02-03 18:40:38,14.98333569,0.0002674,69.9997,63.0771,271.1858,88.8995,-2.8404e-05,-4.32e-06,0.0,0 STARLINK-3058,1 49138U 21082J   24034.77822402 -.00000432  00000-0 -28404-4 0  9996,2 49138  69.9997  63.0771 0002674 271.1858  88.8995 14.98333569131408,6950.182,96.107,573.905,570.188,0.0
49138.0,STARLINK-3058,PAYLOAD,2024-02-04 04:17:26,14.98336942,0.0002708,69.9996,62.0667,272.4688,87.6161,-1.2547e-05,-2.43e-06,0.0,0 STARLINK-3058,1 49138U 21082J   24035.17877977 -.00000243  00000-0 -12547-4 0  9999,2 49138  69.9996  62.0667 0002708 272.4688  87.6161 14.98336942131469,6950.171,96.107,573.919,570.154,0.0
49138.0,STARLINK-3058,PAYLOAD,2024-02-04 10:41:58,14.98336249,0.0002747,69.9995,61.3934,271.5688,88.5157,-1.9689e-05,-3.28e-06,0.0,0 STARLINK-3058,1 49138U 21082J   24035.44581962 -.00000328  00000-0 -19689-4 0  9993,2 49138  69.9995  61.3934 0002747 271.5688  88.5157 14.98336249131500,6950.174,96.107,573.948,570.129,0.0
49138.0,STARLINK-3058,PAYLOAD,2024-02-05 04:19:27,14.9833101,0.0002848,69.9992,59.5417,270.003,90.0803,5.126e-05,5.19e-06,0.0,0 STARLINK-3058,1 49138U 21082J   24036.18017890  .00000519  00000-0  51260-4 0  9990,2 49138  69.9992  59.5417 0002848 270.0030  90.0803 14.98331010131618,6950.19,96.107,574.034,570.075,0.0
